{"type": "FeatureCollection", "features": [ {"type": "Feature", "properties": {"norad_id": 42738, "name": "QZS-2 (QZSS/PRN 194)", "group": "gnss", "lat": 29.777553420951435, "lon": -70.66718153351367, "alt_km": 38169.30811320593, "timestamp": "2025-12-21T03:56:51.082895+00:00", "meta": {"OBJECT_NAME": "QZS-2 (QZSS/PRN 194)", "OBJECT_ID": "2017-028A", "EPOCH": "2025-12-18T13:55:30.556128", "MEAN_MOTION": 1.00281517, "ECCENTRICITY": 0.07566042, "INCLINATION": 39.7045, "RA_OF_ASC_NODE": 245.7969, "ARG_OF_PERICENTER": 269.5406, "MEAN_ANOMALY": 282.9842, "EPHEMERIS_TYPE": 0, "CLASSIFICATION_TYPE": "U", "NORAD_CAT_ID": 42738, "ELEMENT_SET_NO": 999, "REV_AT_EPOCH": 581, "BSTAR": 0, "MEAN_MOTION_DOT": -1.25e-06, "MEAN_MOTION_DDOT": 0}, "tle": {"line1": "1 42738U 17028A   25352.58021477 -.00000125  00000+0  00000+0 0  9990", "line2": "2 42738  39.7045 245.7969 0756604 269.5406 282.9842  1.00281517  5810"}}, "geometry": {"type": "Point", "coordinates": [-70.66718153351367, 29.777553420951435]}}, {"type": "Feature", "properties": {"norad_id": 42917, "name": "QZS-3 (QZSS/PRN 199)", "group": "gnss", "lat": -0.000541443130483261, "lon": -83.80609679691588, "alt_km": 35780.1041832265, "timestamp": "2025-12-21T03:56:51.082906+00:00", "meta": {"OBJECT_NAME": "QZS-3 (QZSS/PRN 199)", "OBJECT_ID": "2017-048A", "EPOCH": "2025-12-20T18:58:11.544096", "MEAN_MOTION": 1.00265475, "ECCENTRICITY": 0.0001845, "INCLINATION": 0.0271, "RA_OF_ASC_NODE": 166.9444, "ARG_OF_PERICENTER": 112.7783, "MEAN_ANOMALY": 221.4564, "EPHEMERIS_TYPE": 0, "CLASSIFICATION_TYPE": "U", "NORAD_CAT_ID": 42917, "ELEMENT_SET_NO": 999, "REV_AT_EPOCH": 3047, "BSTAR": 0, "MEAN_MOTION_DOT": 0, "MEAN_MOTION_DDOT": 0}, "tle": {"line1": "1 42917U 17048A   25354.79041139  .00000000  00000+0  00000+0 0  9994", "line2": "2 42917   0.0271 166.9444 0001845 112.7783 221.4564  1.00265475 30474"}}, "geometry": {"type": "Point", "coordinates": [-83.80609679691588, -0.000541443130483261]}}, {"type": "Feature", "properties": {"norad_id": 42939, "name": "COSMOS 2522 (752)", "group": "gnss", "lat": -63.38194962337556, "lon": 121.75764744365824, "alt_km": 19126.564294952695, "timestamp": "2025-12-21T03:56:51.082917+00:00", "meta": {"OBJECT_NAME": "COSMOS 2522 (752)", "OBJECT_ID": "2017-055A", "EPOCH": "2025-12-20T08:02:51.947808", "MEAN_MOTION": 2.13102062, "ECCENTRICITY": 0.0006308, "INCLINATION": 64.0763, "RA_OF_ASC_NODE": 197.9702, "ARG_OF_PERICENTER": 223.818, "MEAN_ANOMALY": 136.2073, "EPHEMERIS_TYPE": 0, "CLASSIFICATION_TYPE": "U", "NORAD_CAT_ID": 42939, "ELEMENT_SET_NO": 999, "REV_AT_EPOCH": 6416, "BSTAR": 0, "MEAN_MOTION_DOT": 1.01e-06, "MEAN_MOTION_DDOT": 0}, "tle": {"line1": "1 42939U 17055A   25354.33532347  .00000101  00000+0  00000+0 0  9994", "line2": "2 42939  64.0763 197.9702 0006308 223.8180 136.2073  2.13102062 64167"}}, "geometry": {"type": "Point", "coordinates": [121.75764744365824, -63.38194962337556]}}, {"type": "Feature", "properties": {"norad_id": 42965, "name": "QZS-4 (QZSS/PRN 195)", "group": "gnss", "lat": -32.58214974291774, "lon": -63.37710040889643, "alt_km": 33021.89560912639, "timestamp": "2025-12-21T03:56:51.082927+00:00", "meta": {"OBJECT_NAME": "QZS-4 (QZSS/PRN 195)", "OBJECT_ID": "2017-062A", "EPOCH": "2025-12-20T12:23:32.377344", "MEAN_MOTION": 1.00250818, "ECCENTRICITY": 0.07514763, "INCLINATION": 40.2219, "RA_OF_ASC_NODE": 345.7724, "ARG_OF_PERICENTER": 271.7049, "MEAN_ANOMALY": 153.5074, "EPHEMERIS_TYPE": 0, "CLASSIFICATION_TYPE": "U", "NORAD_CAT_ID": 42965, "ELEMENT_SET_NO": 999, "REV_AT_EPOCH": 3001, "BSTAR": 0, "MEAN_MOTION_DOT": -3.25e-06, "MEAN_MOTION_DDOT": 0}, "tle": {"line1": "1 42965U 17062A   25354.51634696 -.00000325  00000+0  00000+0 0  9990", "line2": "2 42965  40.2219 345.7724 0751476 271.7049 153.5074  1.00250818 30012"}}, "geometry": {"type": "Point", "coordinates": [-63.37710040889643, -32.58214974291774]}}, {"type": "Feature", "properties": {"norad_id": 43001, "name": "BEIDOU-3 M1 (C19)", "group": "gnss", "lat": -17.686317970139672, "lon": -98.8682969436834, "alt_km": 21535.530213925183, "timestamp": "2025-12-21T03:56:51.082937+00:00", "meta": {"OBJECT_NAME": "BEIDOU-3 M1 (C19)", "OBJECT_ID": "2017-069A", "EPOCH": "2025-12-19T06:04:23.941632", "MEAN_MOTION": 1.86231412, "ECCENTRICITY": 0.0009566, "INCLINATION": 56.5322, "RA_OF_ASC_NODE": 69.0186, "ARG_OF_PERICENTER": 302.1864, "MEAN_ANOMALY": 57.7554, "EPHEMERIS_TYPE": 0, "CLASSIFICATION_TYPE": "U", "NORAD_CAT_ID": 43001, "ELEMENT_SET_NO": 999, "REV_AT_EPOCH": 5525, "BSTAR": 0, "MEAN_MOTION_DOT": -5.5e-07, "MEAN_MOTION_DDOT": 0}, "tle": {"line1": "1 43001U 17069A   25353.25305488 -.00000055  00000+0  00000+0 0  9993", "line2": "2 43001  56.5322  69.0186 0009566 302.1864  57.7554  1.86231412 55251"}}, "geometry": {"type": "Point", "coordinates": [-98.8682969436834, -17.686317970139672]}}, {"type": "Feature", "properties": {"norad_id": 43002, "name": "BEIDOU-3 M2 (C20)", "group": "gnss", "lat": -47.881857274730955, "lon": -64.06302546959601, "alt_km": 21532.727729477647, "timestamp": "2025-12-21T03:56:51.082949+00:00", "meta": {"OBJECT_NAME": "BEIDOU-3 M2 (C20)", "OBJECT_ID": "2017-069B", "EPOCH": "2025-12-19T04:35:39.539904", "MEAN_MOTION": 1.86231009, "ECCENTRICITY": 0.0006519, "INCLINATION": 56.532, "RA_OF_ASC_NODE": 69.0565, "ARG_OF_PERICENTER": 330.2695, "MEAN_ANOMALY": 29.7276, "EPHEMERIS_TYPE": 0, "CLASSIFICATION_TYPE": "U", "NORAD_CAT_ID": 43002, "ELEMENT_SET_NO": 999, "REV_AT_EPOCH": 5524, "BSTAR": 0, "MEAN_MOTION_DOT": -5.5e-07, "MEAN_MOTION_DDOT": 0}, "tle": {"line1": "1 43002U 17069B   25353.19142986 -.00000055  00000+0  00000+0 0  9999", "line2": "2 43002  56.5320  69.0565 0006519 330.2695  29.7276  1.86231009 55241"}}, "geometry": {"type": "Point", "coordinates": [-64.06302546959601, -47.881857274730955]}}, {"type": "Feature", "properties": {"norad_id": 43055, "name": "GSAT0215 (GALILEO 19)", "group": "gnss", "lat": -51.20351539756654, "lon": 166.3055388632716, "alt_km": 23225.876686581694, "timestamp": "2025-12-21T03:56:51.082959+00:00", "meta": {"OBJECT_NAME": "GSAT0215 (GALILEO 19)", "OBJECT_ID": "2017-079A", "EPOCH": "2025-12-18T08:21:56.206080", "MEAN_MOTION": 1.70474068, "ECCENTRICITY": 0.00012335, "INCLINATION": 55.1282, "RA_OF_ASC_NODE": 226.4832, "ARG_OF_PERICENTER": 345.8587, "MEAN_ANOMALY": 14.2435, "EPHEMERIS_TYPE": 0, "CLASSIFICATION_TYPE": "U", "NORAD_CAT_ID": 43055, "ELEMENT_SET_NO": 999, "REV_AT_EPOCH": 4990, "BSTAR": 0, "MEAN_MOTION_DOT": 6.2e-07, "MEAN_MOTION_DDOT": 0}, "tle": {"line1": "1 43055U 17079A   25352.34856720  .00000062  00000+0  00000+0 0  9999", "line2": "2 43055  55.1282 226.4832 0001233 345.8587  14.2435  1.70474068 49906"}}, "geometry": {"type": "Point", "coordinates": [166.3055388632716, -51.20351539756654]}}, {"type": "Feature", "properties": {"norad_id": 43056, "name": "GSAT0216 (GALILEO 20)", "group": "gnss", "lat": 50.67269737940147, "lon": -11.87332417836029, "alt_km": 23221.97399134386, "timestamp": "2025-12-21T03:56:51.082972+00:00", "meta": {"OBJECT_NAME": "GSAT0216 (GALILEO 20)", "OBJECT_ID": "2017-079B", "EPOCH": "2025-12-19T19:30:44.926272", "MEAN_MOTION": 1.70474153, "ECCENTRICITY": 0.00023685, "INCLINATION": 55.1281, "RA_OF_ASC_NODE": 226.4428, "ARG_OF_PERICENTER": 323.7267, "MEAN_ANOMALY": 36.3665, "EPHEMERIS_TYPE": 0, "CLASSIFICATION_TYPE": "U", "NORAD_CAT_ID": 43056, "ELEMENT_SET_NO": 999, "REV_AT_EPOCH": 4994, "BSTAR": 0, "MEAN_MOTION_DOT": 6.9e-07, "MEAN_MOTION_DDOT": 0}, "tle": {"line1": "1 43056U 17079B   25353.81301998  .00000069  00000+0  00000+0 0  9992", "line2": "2 43056  55.1281 226.4428 0002368 323.7267  36.3665  1.70474153 49946"}}, "geometry": {"type": "Point", "coordinates": [-11.87332417836029, 50.67269737940147]}}, {"type": "Feature", "properties": {"norad_id": 43057, "name": "GSAT0217 (GALILEO 21)", "group": "gnss", "lat": -21.113783122945115, "lon": -149.19547258410543, "alt_km": 23217.007951504285, "timestamp": "2025-12-21T03:56:51.082982+00:00", "meta": {"OBJECT_NAME": "GSAT0217 (GALILEO 21)", "OBJECT_ID": "2017-079C", "EPOCH": "2025-12-18T06:34:31.891008", "MEAN_MOTION": 1.70474093, "ECCENTRICITY": 0.0002798, "INCLINATION": 55.1266, "RA_OF_ASC_NODE": 226.4833, "ARG_OF_PERICENTER": 348.1017, "MEAN_ANOMALY": 11.9971, "EPHEMERIS_TYPE": 0, "CLASSIFICATION_TYPE": "U", "NORAD_CAT_ID": 43057, "ELEMENT_SET_NO": 999, "REV_AT_EPOCH": 4990, "BSTAR": 0, "MEAN_MOTION_DOT": 6.1e-07, "MEAN_MOTION_DDOT": 0}, "tle": {"line1": "1 43057U 17079C   25352.27398022  .00000061  00000+0  00000+0 0  9998", "line2": "2 43057  55.1266 226.4833 0002798 348.1017  11.9971  1.70474093 49909"}}, "geometry": {"type": "Point", "coordinates": [-149.19547258410543, -21.113783122945115]}}, {"type": "Feature", "properties": {"norad_id": 43058, "name": "GSAT0218 (GALILEO 22)", "group": "gnss", "lat": -15.421006299435252, "lon": 57.50274813645809, "alt_km": 23227.042636245857, "timestamp": "2025-12-21T03:56:51.082992+00:00", "meta": {"OBJECT_NAME": "GSAT0218 (GALILEO 22)", "OBJECT_ID": "2017-079D", "EPOCH": "2025-12-20T06:05:26.226528", "MEAN_MOTION": 1.70474115, "ECCENTRICITY": 0.00027735, "INCLINATION": 55.1262, "RA_OF_ASC_NODE": 226.4264, "ARG_OF_PERICENTER": 307.8467, "MEAN_ANOMALY": 52.2377, "EPHEMERIS_TYPE": 0, "CLASSIFICATION_TYPE": "U", "NORAD_CAT_ID": 43058, "ELEMENT_SET_NO": 999, "REV_AT_EPOCH": 4996, "BSTAR": 0, "MEAN_MOTION_DOT": 7e-07, "MEAN_MOTION_DDOT": 0}, "tle": {"line1": "1 43058U 17079D   25354.25377577  .00000070  00000+0  00000+0 0  9991", "line2": "2 43058  55.1262 226.4264 0002773 307.8467  52.2377  1.70474115 49967"}}, "geometry": {"type": "Point", "coordinates": [57.50274813645809, -15.421006299435252]}}]}